XRISM                   
1 57800U 23137A   24022.85322151  .00005289  00000+0  41601-3 0  9991
2 57800  31.0013 222.7010 0009806 200.2067 159.8181 14.99318738 20619
